{
  "type":"FeatureCollection",
  "bbox":[-118.70856,34.03519,-118.59958,34.09435],
  "features":[{
    "type":"Feature",
    "properties":{"name":"saddle-peak","source":"Tests/Fixtures/t0182/plan-pair/lambda-7.75.json","tolerance_m":5.0,"source_points":1393,"points":483},
    "geometry":{"type":"LineString","coordinates":[
        [-118.60129,34.09435],
        [-118.60160,34.09421],
        [-118.60189,34.09374],
        [-118.60187,34.09335],
        [-118.60193,34.09324],
        [-118.60175,34.09301],
        [-118.60166,34.09271],
        [-118.60187,34.09080],
        [-118.60198,34.09051],
        [-118.60211,34.09036],
        [-118.60242,34.09025],
        [-118.60322,34.09041],
        [-118.60373,34.09033],
        [-118.60424,34.08996],
        [-118.60438,34.08964],
        [-118.60422,34.08933],
        [-118.60393,34.08914],
        [-118.60177,34.08844],
        [-118.60125,34.08815],
        [-118.60002,34.08532],
        [-118.60012,34.08461],
        [-118.60000,34.08438],
        [-118.59958,34.08400],
        [-118.59974,34.08364],
        [-118.59995,34.08355],
        [-118.60048,34.08383],
        [-118.60082,34.08421],
        [-118.60086,34.08499],
        [-118.60101,34.08510],
        [-118.60114,34.08507],
        [-118.60117,34.08460],
        [-118.60154,34.08400],
        [-118.60161,34.08349],
        [-118.60157,34.08337],
        [-118.60102,34.08307],
        [-118.60064,34.08303],
        [-118.60048,34.08294],
        [-118.60044,34.08273],
        [-118.60062,34.08207],
        [-118.60081,34.08182],
        [-118.60096,34.08177],
        [-118.60258,34.08178],
        [-118.60270,34.08163],
        [-118.60258,34.08126],
        [-118.60262,34.08114],
        [-118.60301,34.08091],
        [-118.60378,34.08100],
        [-118.60394,34.08088],
        [-118.60405,34.08057],
        [-118.60405,34.08042],
        [-118.60395,34.08034],
        [-118.60308,34.08030],
        [-118.60287,34.08018],
        [-118.60292,34.08005],
        [-118.60316,34.07996],
        [-118.60326,34.07980],
        [-118.60288,34.07941],
        [-118.60307,34.07899],
        [-118.60289,34.07884],
        [-118.60239,34.07872],
        [-118.60227,34.07845],
        [-118.60233,34.07839],
        [-118.60371,34.07837],
        [-118.60404,34.07871],
        [-118.60432,34.07867],
        [-118.60434,34.07843],
        [-118.60419,34.07808],
        [-118.60342,34.07782],
        [-118.60326,34.07763],
        [-118.60340,34.07720],
        [-118.60375,34.07695],
        [-118.60450,34.07663],
        [-118.60483,34.07668],
        [-118.60492,34.07674],
        [-118.60501,34.07704],
        [-118.60519,34.07721],
        [-118.60569,34.07746],
        [-118.60658,34.07738],
        [-118.60683,34.07724],
        [-118.60730,34.07680],
        [-118.60766,34.07602],
        [-118.60759,34.07572],
        [-118.60727,34.07549],
        [-118.60715,34.07532],
        [-118.60727,34.07447],
        [-118.60761,34.07411],
        [-118.60858,34.07386],
        [-118.60877,34.07348],
        [-118.60871,34.07334],
        [-118.60856,34.07327],
        [-118.60815,34.07335],
        [-118.60783,34.07329],
        [-118.60765,34.07314],
        [-118.60749,34.07284],
        [-118.60721,34.07261],
        [-118.60596,34.07212],
        [-118.60579,34.07203],
        [-118.60560,34.07167],
        [-118.60494,34.07145],
        [-118.60472,34.07117],
        [-118.60455,34.07060],
        [-118.60404,34.07059],
        [-118.60389,34.07053],
        [-118.60381,34.06981],
        [-118.60419,34.06928],
        [-118.60449,34.06911],
        [-118.60468,34.06919],
        [-118.60480,34.06947],
        [-118.60528,34.06984],
        [-118.60547,34.06990],
        [-118.60628,34.06986],
        [-118.60668,34.07005],
        [-118.60779,34.06959],
        [-118.60849,34.06958],
        [-118.60884,34.06950],
        [-118.60981,34.06860],
        [-118.61110,34.06814],
        [-118.61120,34.06831],
        [-118.61145,34.06848],
        [-118.61239,34.06866],
        [-118.61280,34.06864],
        [-118.61326,34.06837],
        [-118.61370,34.06831],
        [-118.61411,34.06816],
        [-118.61476,34.06823],
        [-118.61537,34.06847],
        [-118.61556,34.06863],
        [-118.61603,34.06971],
        [-118.61592,34.07016],
        [-118.61597,34.07038],
        [-118.61631,34.07069],
        [-118.61654,34.07107],
        [-118.61701,34.07127],
        [-118.61708,34.07144],
        [-118.61678,34.07179],
        [-118.61702,34.07222],
        [-118.61690,34.07242],
        [-118.61657,34.07243],
        [-118.61564,34.07203],
        [-118.61533,34.07212],
        [-118.61500,34.07272],
        [-118.61504,34.07290],
        [-118.61543,34.07334],
        [-118.61675,34.07359],
        [-118.61733,34.07361],
        [-118.61793,34.07405],
        [-118.61852,34.07400],
        [-118.61898,34.07424],
        [-118.62013,34.07392],
        [-118.62061,34.07412],
        [-118.62087,34.07412],
        [-118.62175,34.07350],
        [-118.62226,34.07352],
        [-118.62242,34.07364],
        [-118.62264,34.07397],
        [-118.62245,34.07436],
        [-118.62245,34.07456],
        [-118.62252,34.07475],
        [-118.62276,34.07491],
        [-118.62358,34.07499],
        [-118.62429,34.07546],
        [-118.62462,34.07558],
        [-118.62498,34.07554],
        [-118.62512,34.07545],
        [-118.62555,34.07498],
        [-118.62602,34.07498],
        [-118.62620,34.07523],
        [-118.62632,34.07567],
        [-118.62648,34.07586],
        [-118.62673,34.07591],
        [-118.62758,34.07575],
        [-118.62787,34.07576],
        [-118.62819,34.07614],
        [-118.62881,34.07628],
        [-118.63052,34.07721],
        [-118.63117,34.07735],
        [-118.63170,34.07767],
        [-118.63226,34.07785],
        [-118.63256,34.07828],
        [-118.63299,34.07869],
        [-118.63304,34.07884],
        [-118.63289,34.07925],
        [-118.63299,34.07971],
        [-118.63250,34.08032],
        [-118.63267,34.08083],
        [-118.63216,34.08136],
        [-118.63219,34.08152],
        [-118.63238,34.08160],
        [-118.63302,34.08158],
        [-118.63324,34.08165],
        [-118.63331,34.08186],
        [-118.63329,34.08248],
        [-118.63345,34.08267],
        [-118.63391,34.08276],
        [-118.63454,34.08316],
        [-118.63533,34.08331],
        [-118.63622,34.08378],
        [-118.63649,34.08382],
        [-118.63676,34.08366],
        [-118.63721,34.08311],
        [-118.63886,34.08268],
        [-118.63904,34.08237],
        [-118.63947,34.08203],
        [-118.64121,34.08107],
        [-118.64142,34.08103],
        [-118.64392,34.08127],
        [-118.64486,34.08118],
        [-118.64548,34.08121],
        [-118.64574,34.08111],
        [-118.64738,34.08007],
        [-118.64891,34.07931],
        [-118.64905,34.07906],
        [-118.64905,34.07888],
        [-118.64886,34.07862],
        [-118.64865,34.07851],
        [-118.64825,34.07854],
        [-118.64630,34.07930],
        [-118.64528,34.07938],
        [-118.64463,34.07929],
        [-118.64315,34.07882],
        [-118.64291,34.07860],
        [-118.64291,34.07827],
        [-118.64305,34.07799],
        [-118.64359,34.07749],
        [-118.64411,34.07617],
        [-118.64467,34.07567],
        [-118.64482,34.07529],
        [-118.64489,34.07479],
        [-118.64507,34.07454],
        [-118.64531,34.07439],
        [-118.64592,34.07431],
        [-118.64705,34.07431],
        [-118.64800,34.07444],
        [-118.64896,34.07469],
        [-118.64983,34.07462],
        [-118.65065,34.07473],
        [-118.65153,34.07511],
        [-118.65182,34.07509],
        [-118.65207,34.07497],
        [-118.65218,34.07474],
        [-118.65212,34.07437],
        [-118.65191,34.07396],
        [-118.65151,34.07359],
        [-118.65143,34.07325],
        [-118.65155,34.07301],
        [-118.65232,34.07264],
        [-118.65259,34.07232],
        [-118.65264,34.07182],
        [-118.65233,34.07115],
        [-118.65263,34.07048],
        [-118.65299,34.07014],
        [-118.65343,34.07001],
        [-118.65369,34.07027],
        [-118.65398,34.07042],
        [-118.65626,34.07122],
        [-118.65660,34.07146],
        [-118.65709,34.07198],
        [-118.65753,34.07224],
        [-118.65785,34.07223],
        [-118.65829,34.07194],
        [-118.65865,34.07185],
        [-118.65909,34.07184],
        [-118.65960,34.07203],
        [-118.66003,34.07203],
        [-118.66032,34.07194],
        [-118.66075,34.07156],
        [-118.66084,34.07114],
        [-118.66115,34.07079],
        [-118.66121,34.07048],
        [-118.66159,34.07010],
        [-118.66150,34.06933],
        [-118.66178,34.06912],
        [-118.66221,34.06906],
        [-118.66290,34.06884],
        [-118.66354,34.06882],
        [-118.66376,34.06898],
        [-118.66397,34.06945],
        [-118.66421,34.06970],
        [-118.66587,34.07034],
        [-118.66642,34.07035],
        [-118.66770,34.06988],
        [-118.66810,34.06993],
        [-118.66849,34.07008],
        [-118.66885,34.07004],
        [-118.67037,34.06922],
        [-118.67063,34.06878],
        [-118.67059,34.06823],
        [-118.67071,34.06806],
        [-118.67094,34.06802],
        [-118.67147,34.06822],
        [-118.67201,34.06829],
        [-118.67217,34.06822],
        [-118.67222,34.06809],
        [-118.67206,34.06667],
        [-118.67215,34.06637],
        [-118.67244,34.06596],
        [-118.67350,34.06534],
        [-118.67607,34.06501],
        [-118.67639,34.06505],
        [-118.67687,34.06529],
        [-118.67752,34.06516],
        [-118.67868,34.06525],
        [-118.67947,34.06554],
        [-118.68016,34.06601],
        [-118.68138,34.06629],
        [-118.68208,34.06660],
        [-118.68306,34.06670],
        [-118.68350,34.06684],
        [-118.68367,34.06699],
        [-118.68376,34.06729],
        [-118.68373,34.06751],
        [-118.68341,34.06811],
        [-118.68357,34.06869],
        [-118.68383,34.06886],
        [-118.68422,34.06889],
        [-118.68487,34.06875],
        [-118.68554,34.06892],
        [-118.68669,34.06894],
        [-118.68834,34.06832],
        [-118.68975,34.06867],
        [-118.69060,34.06941],
        [-118.69086,34.06949],
        [-118.69153,34.06953],
        [-118.69303,34.07063],
        [-118.69385,34.07062],
        [-118.69416,34.07070],
        [-118.69433,34.07101],
        [-118.69426,34.07154],
        [-118.69438,34.07176],
        [-118.69494,34.07201],
        [-118.69539,34.07261],
        [-118.69659,34.07300],
        [-118.69754,34.07352],
        [-118.69789,34.07385],
        [-118.69779,34.07411],
        [-118.69745,34.07412],
        [-118.69728,34.07397],
        [-118.69712,34.07358],
        [-118.69632,34.07331],
        [-118.69589,34.07332],
        [-118.69526,34.07361],
        [-118.69447,34.07357],
        [-118.69435,34.07346],
        [-118.69438,34.07310],
        [-118.69428,34.07292],
        [-118.69406,34.07282],
        [-118.69356,34.07282],
        [-118.69344,34.07277],
        [-118.69322,34.07253],
        [-118.69315,34.07220],
        [-118.69297,34.07203],
        [-118.69222,34.07180],
        [-118.69143,34.07166],
        [-118.69084,34.07126],
        [-118.69069,34.07123],
        [-118.69028,34.07125],
        [-118.68985,34.07145],
        [-118.68934,34.07209],
        [-118.68909,34.07210],
        [-118.68848,34.07180],
        [-118.68818,34.07186],
        [-118.68722,34.07242],
        [-118.68708,34.07291],
        [-118.68688,34.07306],
        [-118.68633,34.07297],
        [-118.68482,34.07246],
        [-118.68454,34.07250],
        [-118.68402,34.07274],
        [-118.68312,34.07293],
        [-118.68293,34.07312],
        [-118.68295,34.07326],
        [-118.68310,34.07335],
        [-118.68368,34.07316],
        [-118.68403,34.07314],
        [-118.68457,34.07313],
        [-118.68490,34.07324],
        [-118.68531,34.07359],
        [-118.68599,34.07398],
        [-118.68637,34.07447],
        [-118.68673,34.07458],
        [-118.68780,34.07511],
        [-118.68834,34.07500],
        [-118.68904,34.07519],
        [-118.68976,34.07515],
        [-118.68992,34.07528],
        [-118.68987,34.07551],
        [-118.68962,34.07560],
        [-118.68856,34.07532],
        [-118.68789,34.07558],
        [-118.68722,34.07551],
        [-118.68686,34.07574],
        [-118.68615,34.07592],
        [-118.68618,34.07618],
        [-118.68645,34.07623],
        [-118.68709,34.07616],
        [-118.68818,34.07672],
        [-118.68983,34.07708],
        [-118.69032,34.07714],
        [-118.69145,34.07712],
        [-118.69274,34.07731],
        [-118.69323,34.07755],
        [-118.69597,34.07853],
        [-118.69954,34.07876],
        [-118.70012,34.07914],
        [-118.70060,34.07957],
        [-118.70128,34.08047],
        [-118.70214,34.08123],
        [-118.70377,34.08210],
        [-118.70413,34.08219],
        [-118.70455,34.08213],
        [-118.70388,34.08060],
        [-118.70243,34.07842],
        [-118.70228,34.07799],
        [-118.70230,34.07779],
        [-118.70261,34.07725],
        [-118.70326,34.07570],
        [-118.70352,34.07531],
        [-118.70474,34.07416],
        [-118.70575,34.07271],
        [-118.70653,34.07120],
        [-118.70808,34.06905],
        [-118.70821,34.06865],
        [-118.70833,34.06726],
        [-118.70856,34.06611],
        [-118.70848,34.06550],
        [-118.70739,34.06409],
        [-118.70552,34.06326],
        [-118.70504,34.06327],
        [-118.70355,34.06350],
        [-118.70279,34.06373],
        [-118.70249,34.06375],
        [-118.70146,34.06353],
        [-118.70071,34.06345],
        [-118.69993,34.06314],
        [-118.69946,34.06305],
        [-118.69922,34.06307],
        [-118.69777,34.06351],
        [-118.69703,34.06357],
        [-118.69664,34.06350],
        [-118.69542,34.06285],
        [-118.69474,34.06220],
        [-118.69433,34.06162],
        [-118.69419,34.06119],
        [-118.69416,34.06078],
        [-118.69437,34.05916],
        [-118.69398,34.05724],
        [-118.69399,34.05679],
        [-118.69408,34.05653],
        [-118.69441,34.05611],
        [-118.69554,34.05539],
        [-118.69616,34.05489],
        [-118.69645,34.05443],
        [-118.69659,34.05369],
        [-118.69651,34.05328],
        [-118.69616,34.05267],
        [-118.69561,34.05219],
        [-118.69467,34.05162],
        [-118.69412,34.05107],
        [-118.69279,34.04884],
        [-118.69204,34.04730],
        [-118.69196,34.04688],
        [-118.69209,34.04576],
        [-118.69254,34.04437],
        [-118.69245,34.04276],
        [-118.69267,34.04234],
        [-118.69294,34.04209],
        [-118.69346,34.04181],
        [-118.69531,34.04145],
        [-118.69823,34.04022],
        [-118.70097,34.03957],
        [-118.70190,34.03911],
        [-118.70169,34.03885],
        [-118.70138,34.03809],
        [-118.70090,34.03767],
        [-118.69781,34.03614],
        [-118.69692,34.03560],
        [-118.69662,34.03551],
        [-118.69338,34.03519],
        [-118.69289,34.03532],
        [-118.69213,34.03566],
        [-118.68988,34.03614],
        [-118.68710,34.03672],
        [-118.68706,34.03652]
    ]}
  }]
}
